<?xml version="1.0" encoding="UTF-8"?>
<ndm xmlns:xsi="http://www.w3.org/2001/XMLSchema-instance" xsi:noNamespaceSchemaLocation="https://sanaregistry.org/r/ndmxml_unqualified/ndmxml-2.0.0-master-2.0.xsd">
<omm id="CCSDS_OMM_VERS" version="2.0">
<header><CREATION_DATE/><ORIGINATOR/></header><body><segment><metadata><OBJECT_NAME>KUIPER-00079</OBJECT_NAME><OBJECT_ID>2025-151L</OBJECT_ID><CENTER_NAME>EARTH</CENTER_NAME><REF_FRAME>TEME</REF_FRAME><TIME_SYSTEM>UTC</TIME_SYSTEM><MEAN_ELEMENT_THEORY>SGP4</MEAN_ELEMENT_THEORY></metadata><data><meanElements><EPOCH>2025-11-30T03:42:13.646304</EPOCH><MEAN_MOTION>14.80180467</MEAN_MOTION><ECCENTRICITY>.001157</ECCENTRICITY><INCLINATION>51.8995</INCLINATION><RA_OF_ASC_NODE>20.7234</RA_OF_ASC_NODE><ARG_OF_PERICENTER>271.1674</ARG_OF_PERICENTER><MEAN_ANOMALY>88.7963</MEAN_ANOMALY></meanElements><tleParameters><EPHEMERIS_TYPE>0</EPHEMERIS_TYPE><CLASSIFICATION_TYPE>U</CLASSIFICATION_TYPE><NORAD_CAT_ID>64826</NORAD_CAT_ID><ELEMENT_SET_NO>999</ELEMENT_SET_NO><REV_AT_EPOCH>2176</REV_AT_EPOCH><BSTAR>.56511E-3</BSTAR><MEAN_MOTION_DOT>.4116E-4</MEAN_MOTION_DOT><MEAN_MOTION_DDOT>0</MEAN_MOTION_DDOT></tleParameters></data></segment></body></omm>
<omm id="CCSDS_OMM_VERS" version="2.0">
<header><CREATION_DATE/><ORIGINATOR/></header><body><segment><metadata><OBJECT_NAME>KUIPER-00080</OBJECT_NAME><OBJECT_ID>2025-151M</OBJECT_ID><CENTER_NAME>EARTH</CENTER_NAME><REF_FRAME>TEME</REF_FRAME><TIME_SYSTEM>UTC</TIME_SYSTEM><MEAN_ELEMENT_THEORY>SGP4</MEAN_ELEMENT_THEORY></metadata><data><meanElements><EPOCH>2025-11-29T07:25:24.622464</EPOCH><MEAN_MOTION>14.79948358</MEAN_MOTION><ECCENTRICITY>.00053275</ECCENTRICITY><INCLINATION>51.9007</INCLINATION><RA_OF_ASC_NODE>24.4548</RA_OF_ASC_NODE><ARG_OF_PERICENTER>284.8218</ARG_OF_PERICENTER><MEAN_ANOMALY>75.2154</MEAN_ANOMALY></meanElements><tleParameters><EPHEMERIS_TYPE>0</EPHEMERIS_TYPE><CLASSIFICATION_TYPE>U</CLASSIFICATION_TYPE><NORAD_CAT_ID>64827</NORAD_CAT_ID><ELEMENT_SET_NO>999</ELEMENT_SET_NO><REV_AT_EPOCH>2044</REV_AT_EPOCH><BSTAR>.73971078E-3</BSTAR><MEAN_MOTION_DOT>.5425E-4</MEAN_MOTION_DOT><MEAN_MOTION_DDOT>0</MEAN_MOTION_DDOT></tleParameters></data></segment></body></omm>
<omm id="CCSDS_OMM_VERS" version="2.0">
<header><CREATION_DATE/><ORIGINATOR/></header><body><segment><metadata><OBJECT_NAME>KUIPER-00082</OBJECT_NAME><OBJECT_ID>2025-151N</OBJECT_ID><CENTER_NAME>EARTH</CENTER_NAME><REF_FRAME>TEME</REF_FRAME><TIME_SYSTEM>UTC</TIME_SYSTEM><MEAN_ELEMENT_THEORY>SGP4</MEAN_ELEMENT_THEORY></metadata><data><meanElements><EPOCH>2025-11-30T02:22:42.679776</EPOCH><MEAN_MOTION>14.80011972</MEAN_MOTION><ECCENTRICITY>.0004796</ECCENTRICITY><INCLINATION>51.9024</INCLINATION><RA_OF_ASC_NODE>8.4717</RA_OF_ASC_NODE><ARG_OF_PERICENTER>305.6707</ARG_OF_PERICENTER><MEAN_ANOMALY>54.3808</MEAN_ANOMALY></meanElements><tleParameters><EPHEMERIS_TYPE>0</EPHEMERIS_TYPE><CLASSIFICATION_TYPE>U</CLASSIFICATION_TYPE><NORAD_CAT_ID>64828</NORAD_CAT_ID><ELEMENT_SET_NO>999</ELEMENT_SET_NO><REV_AT_EPOCH>2073</REV_AT_EPOCH><BSTAR>.59144E-3</BSTAR><MEAN_MOTION_DOT>.4299E-4</MEAN_MOTION_DOT><MEAN_MOTION_DDOT>0</MEAN_MOTION_DDOT></tleParameters></data></segment></body></omm>
<omm id="CCSDS_OMM_VERS" version="2.0">
<header><CREATION_DATE/><ORIGINATOR/></header><body><segment><metadata><OBJECT_NAME>KUIPER-00083</OBJECT_NAME><OBJECT_ID>2025-151P</OBJECT_ID><CENTER_NAME>EARTH</CENTER_NAME><REF_FRAME>TEME</REF_FRAME><TIME_SYSTEM>UTC</TIME_SYSTEM><MEAN_ELEMENT_THEORY>SGP4</MEAN_ELEMENT_THEORY></metadata><data><meanElements><EPOCH>2025-11-30T02:11:26.791584</EPOCH><MEAN_MOTION>14.79978176</MEAN_MOTION><ECCENTRICITY>.0010832</ECCENTRICITY><INCLINATION>51.9004</INCLINATION><RA_OF_ASC_NODE>16.0049</RA_OF_ASC_NODE><ARG_OF_PERICENTER>270.7061</ARG_OF_PERICENTER><MEAN_ANOMALY>89.2661</MEAN_ANOMALY></meanElements><tleParameters><EPHEMERIS_TYPE>0</EPHEMERIS_TYPE><CLASSIFICATION_TYPE>U</CLASSIFICATION_TYPE><NORAD_CAT_ID>64829</NORAD_CAT_ID><ELEMENT_SET_NO>999</ELEMENT_SET_NO><REV_AT_EPOCH>2181</REV_AT_EPOCH><BSTAR>-.35024E-3</BSTAR><MEAN_MOTION_DOT>-.2898E-4</MEAN_MOTION_DOT><MEAN_MOTION_DDOT>0</MEAN_MOTION_DDOT></tleParameters></data></segment></body></omm>
<omm id="CCSDS_OMM_VERS" version="2.0">
<header><CREATION_DATE/><ORIGINATOR/></header><body><segment><metadata><OBJECT_NAME>KUIPER-00084</OBJECT_NAME><OBJECT_ID>2025-151Q</OBJECT_ID><CENTER_NAME>EARTH</CENTER_NAME><REF_FRAME>TEME</REF_FRAME><TIME_SYSTEM>UTC</TIME_SYSTEM><MEAN_ELEMENT_THEORY>SGP4</MEAN_ELEMENT_THEORY></metadata><data><meanElements><EPOCH>2025-11-30T03:33:17.536896</EPOCH><MEAN_MOTION>14.79932269</MEAN_MOTION><ECCENTRICITY>.0011767</ECCENTRICITY><INCLINATION>51.9026</INCLINATION><RA_OF_ASC_NODE>25.7426</RA_OF_ASC_NODE><ARG_OF_PERICENTER>245.7084</ARG_OF_PERICENTER><MEAN_ANOMALY>114.2650</MEAN_ANOMALY></meanElements><tleParameters><EPHEMERIS_TYPE>0</EPHEMERIS_TYPE><CLASSIFICATION_TYPE>U</CLASSIFICATION_TYPE><NORAD_CAT_ID>64830</NORAD_CAT_ID><ELEMENT_SET_NO>999</ELEMENT_SET_NO><REV_AT_EPOCH>2049</REV_AT_EPOCH><BSTAR>.14029E-2</BSTAR><MEAN_MOTION_DOT>.10499E-3</MEAN_MOTION_DOT><MEAN_MOTION_DDOT>0</MEAN_MOTION_DDOT></tleParameters></data></segment></body></omm>
<omm id="CCSDS_OMM_VERS" version="2.0">
<header><CREATION_DATE/><ORIGINATOR/></header><body><segment><metadata><OBJECT_NAME>KUIPER-00085</OBJECT_NAME><OBJECT_ID>2025-151R</OBJECT_ID><CENTER_NAME>EARTH</CENTER_NAME><REF_FRAME>TEME</REF_FRAME><TIME_SYSTEM>UTC</TIME_SYSTEM><MEAN_ELEMENT_THEORY>SGP4</MEAN_ELEMENT_THEORY></metadata><data><meanElements><EPOCH>2025-11-30T03:11:52.731744</EPOCH><MEAN_MOTION>14.79910795</MEAN_MOTION><ECCENTRICITY>.0006981</ECCENTRICITY><INCLINATION>51.9042</INCLINATION><RA_OF_ASC_NODE>8.3376</RA_OF_ASC_NODE><ARG_OF_PERICENTER>284.0164</ARG_OF_PERICENTER><MEAN_ANOMALY>76.0022</MEAN_ANOMALY></meanElements><tleParameters><EPHEMERIS_TYPE>0</EPHEMERIS_TYPE><CLASSIFICATION_TYPE>U</CLASSIFICATION_TYPE><NORAD_CAT_ID>64831</NORAD_CAT_ID><ELEMENT_SET_NO>999</ELEMENT_SET_NO><REV_AT_EPOCH>2073</REV_AT_EPOCH><BSTAR>.82415E-3</BSTAR><MEAN_MOTION_DOT>.6065E-4</MEAN_MOTION_DOT><MEAN_MOTION_DDOT>0</MEAN_MOTION_DDOT></tleParameters></data></segment></body></omm>
<omm id="CCSDS_OMM_VERS" version="2.0">
<header><CREATION_DATE/><ORIGINATOR/></header><body><segment><metadata><OBJECT_NAME>KUIPER-00086</OBJECT_NAME><OBJECT_ID>2025-151S</OBJECT_ID><CENTER_NAME>EARTH</CENTER_NAME><REF_FRAME>TEME</REF_FRAME><TIME_SYSTEM>UTC</TIME_SYSTEM><MEAN_ELEMENT_THEORY>SGP4</MEAN_ELEMENT_THEORY></metadata><data><meanElements><EPOCH>2025-11-26T11:25:13.058976</EPOCH><MEAN_MOTION>14.80204060</MEAN_MOTION><ECCENTRICITY>.00108587</ECCENTRICITY><INCLINATION>51.9018</INCLINATION><RA_OF_ASC_NODE>34.4985</RA_OF_ASC_NODE><ARG_OF_PERICENTER>256.6927</ARG_OF_PERICENTER><MEAN_ANOMALY>103.2825</MEAN_ANOMALY></meanElements><tleParameters><EPHEMERIS_TYPE>0</EPHEMERIS_TYPE><CLASSIFICATION_TYPE>U</CLASSIFICATION_TYPE><NORAD_CAT_ID>64832</NORAD_CAT_ID><ELEMENT_SET_NO>999</ELEMENT_SET_NO><REV_AT_EPOCH>2005</REV_AT_EPOCH><BSTAR>.13664411E-2</BSTAR><MEAN_MOTION_DOT>.10286E-3</MEAN_MOTION_DOT><MEAN_MOTION_DDOT>0</MEAN_MOTION_DDOT></tleParameters></data></segment></body></omm>
<omm id="CCSDS_OMM_VERS" version="2.0">
<header><CREATION_DATE/><ORIGINATOR/></header><body><segment><metadata><OBJECT_NAME>KUIPER-00087</OBJECT_NAME><OBJECT_ID>2025-151T</OBJECT_ID><CENTER_NAME>EARTH</CENTER_NAME><REF_FRAME>TEME</REF_FRAME><TIME_SYSTEM>UTC</TIME_SYSTEM><MEAN_ELEMENT_THEORY>SGP4</MEAN_ELEMENT_THEORY></metadata><data><meanElements><EPOCH>2025-11-29T19:17:11.495328</EPOCH><MEAN_MOTION>14.79900357</MEAN_MOTION><ECCENTRICITY>.0000494</ECCENTRICITY><INCLINATION>51.9008</INCLINATION><RA_OF_ASC_NODE>2.2805</RA_OF_ASC_NODE><ARG_OF_PERICENTER>347.1669</ARG_OF_PERICENTER><MEAN_ANOMALY>12.9280</MEAN_ANOMALY></meanElements><tleParameters><EPHEMERIS_TYPE>0</EPHEMERIS_TYPE><CLASSIFICATION_TYPE>U</CLASSIFICATION_TYPE><NORAD_CAT_ID>64833</NORAD_CAT_ID><ELEMENT_SET_NO>999</ELEMENT_SET_NO><REV_AT_EPOCH>2078</REV_AT_EPOCH><BSTAR>.68425E-3</BSTAR><MEAN_MOTION_DOT>.4995E-4</MEAN_MOTION_DOT><MEAN_MOTION_DDOT>0</MEAN_MOTION_DDOT></tleParameters></data></segment></body></omm>

</ndm>
