KUIPER-00079            
1 64826U 25151L   25334.15432461  .00004116  00000+0  56511-3 0  9995
2 64826  51.8995  20.7234 0011570 271.1674  88.7963 14.80180467 21761
KUIPER-00080            
1 64827U 25151M   25333.30931276  .00005425  00000+0  73971-3 0  9993
2 64827  51.9007  24.4548 0005327 284.8218  75.2154 14.79948358 20440
KUIPER-00082            
1 64828U 25151N   25334.09910509  .00004299  00000+0  59144-3 0  9991
2 64828  51.9024   8.4717 0004796 305.6707  54.3808 14.80011972 20735
KUIPER-00083            
1 64829U 25151P   25334.09128231 -.00002898  00000+0 -35024-3 0  9991
2 64829  51.9004  16.0049 0010832 270.7061  89.2661 14.79978176 21810
KUIPER-00084            
1 64830U 25151Q   25334.14811964  .00010499  00000+0  14029-2 0  9996
2 64830  51.9026  25.7426 0011767 245.7084 114.2650 14.79932269 20490
KUIPER-00085            
1 64831U 25151R   25334.13324921  .00006065  00000+0  82415-3 0  9997
2 64831  51.9042   8.3376 0006981 284.0164  76.0022 14.79910795 20732
KUIPER-00086            
1 64832U 25151S   25330.47584559  .00010286  00000+0  13664-2 0  9995
2 64832  51.9018  34.4985 0010858 256.6927 103.2825 14.80204060 20054
KUIPER-00087            
1 64833U 25151T   25333.80360527  .00004995  00000+0  68425-3 0  9999
2 64833  51.9008   2.2805 0000494 347.1669  12.9280 14.79900357 20783
